{
  "type": "FeatureCollection",
  "features": [
    {
      "type": "Feature",
      "geometry": {
        "type": "Polygon",
        "coordinates": [
          [
            [
              -111.106426,
              33.29303
            ],
            [
              -111.103726,
              33.29303
            ],
            [
              -111.103726,
              33.29143
            ],
            [
              -111.106426,
              33.29143
            ],
            [
              -111.106426,
              33.29303
            ]
          ]
        ]
      },
      "properties": {
        "type": "IssuePolygon",
        "id": "chicken-superior-az-2026",
        "issue": "Backyard Chicken Keeping"
      }
    },
    {
      "type": "Feature",
      "geometry": {
        "type": "Point",
        "coordinates": [
          -111.105026,
          33.29233
        ]
      },
      "properties": {
        "type": "Parcel",
        "id": "APN-SUPERIOR-001",
        "label": "Leo's NDC — Anchor Parcel",
        "stance": "pro",
        "lot_size_acres": 0.25,
        "zoning": "R-1",
        "hoa": false,
        "qualifies_hb2325": true,
        "desired_flock": 4,
        "notes": "Primary proponent. Wants hens for food sovereignty and egg production.",
        "ndc": true
      }
    },
    {
      "type": "Feature",
      "geometry": {
        "type": "Point",
        "coordinates": [
          -111.105326,
          33.29283
        ]
      },
      "properties": {
        "type": "Parcel",
        "id": "APN-SUPERIOR-002",
        "label": "Adjacent Homestead — North",
        "stance": "unknown",
        "lot_size_acres": 0.2,
        "zoning": "R-1",
        "hoa": false,
        "qualifies_hb2325": null,
        "desired_flock": null,
        "notes": "Not yet contacted. CCR status unverified.",
        "ndc": false
      }
    },
    {
      "type": "Feature",
      "geometry": {
        "type": "Point",
        "coordinates": [
          -111.104226,
          33.29203
        ]
      },
      "properties": {
        "type": "Parcel",
        "id": "APN-SUPERIOR-003",
        "label": "Adjacent Homestead — East",
        "stance": "unknown",
        "lot_size_acres": 0.3,
        "zoning": "R-1",
        "hoa": false,
        "qualifies_hb2325": true,
        "desired_flock": null,
        "notes": "Not yet contacted.",
        "ndc": false
      }
    },
    {
      "type": "Feature",
      "geometry": {
        "type": "Point",
        "coordinates": [
          -111.10459685325624,
          33.29197409222948
        ]
      },
      "properties": {
        "type": "Parcel",
        "id": "APN-SUPERIOR-NEW-1",
        "label": "New Parcel",
        "stance": "pro",
        "lot_size_acres": null,
        "zoning": "R-1",
        "hoa": false,
        "qualifies_hb2325": null,
        "desired_flock": null,
        "notes": "",
        "ndc": false
      }
    },
    {
      "type": "Feature",
      "geometry": {
        "type": "Point",
        "coordinates": [
          -111.10614180564882,
          33.29158398052182
        ]
      },
      "properties": {
        "type": "Parcel",
        "id": "APN-SUPERIOR-NEW-2",
        "label": "New Parcel",
        "stance": "pro",
        "lot_size_acres": null,
        "zoning": "R-1",
        "hoa": false,
        "qualifies_hb2325": null,
        "desired_flock": null,
        "notes": "",
        "ndc": false
      }
    },
    {
      "type": "Feature",
      "geometry": {
        "type": "Point",
        "coordinates": [
          -111.10585749149324,
          33.29238662225271
        ]
      },
      "properties": {
        "type": "Parcel",
        "id": "APN-SUPERIOR-NEW-3",
        "label": "New Parcel",
        "stance": "pro",
        "lot_size_acres": null,
        "zoning": "R-1",
        "hoa": false,
        "qualifies_hb2325": null,
        "desired_flock": null,
        "notes": "",
        "ndc": false
      }
    }
  ]
}